NORAD_CAT_ID,OBJECT_NAME,OBJECT_TYPE,EPOCH,MEAN_MOTION,ECCENTRICITY,INCLINATION,RA_OF_ASC_NODE,ARG_OF_PERICENTER,MEAN_ANOMALY,BSTAR,MEAN_MOTION_DOT,MEAN_MOTION_DDOT,TLE_LINE0,TLE_LINE1,TLE_LINE2,SEMIMAJOR_AXIS,PERIOD,APOGEE,PERIGEE,DECAYED
53397.0,STARLINK-4515,PAYLOAD,2023-03-10 02:05:06,15.08870316,0.0001204,53.2172,2.4789,109.7383,250.374,0.0015555,0.00024575,0.0,0 STARLINK-4515,1 53397U 22097K   23069.08687900  .00024575  00000-0  15555-2 0  9991,2 53397  53.2172   2.4789 0001204 109.7383 250.3740 15.08870316 32620,6917.788,95.436,540.486,538.82,0.0
53397.0,STARLINK-4515,PAYLOAD,2023-03-11 01:55:52,15.08864763,0.0001531,53.217,358.0187,111.4508,248.6648,0.00071263,0.00011079,0.0,0 STARLINK-4515,1 53397U 22097K   23070.08046990  .00011079  00000-0  71263-3 0  9995,2 53397  53.2170 358.0187 0001531 111.4508 248.6648 15.08864763 32774,6917.805,95.436,540.729,538.611,0.0
53397.0,STARLINK-4515,PAYLOAD,2023-03-12 03:22:04,15.08819555,0.00019,53.2166,353.2621,64.8155,295.3034,0.00080436,0.00012529,0.0,0 STARLINK-4515,1 53397U 22097K   23071.14033227  .00012529  00000-0  80436-3 0  9995,2 53397  53.2166 353.2621 0001900  64.8155 295.3034 15.08819555 32933,6917.943,95.439,541.122,538.493,0.0
53397.0,STARLINK-4515,PAYLOAD,2023-03-12 09:43:37,15.08827362,0.0001197,53.2161,352.0722,71.7178,288.3945,0.00052105,8.011e-05,0.0,0 STARLINK-4515,1 53397U 22097K   23071.40529053  .00008011  00000-0  52105-3 0  9994,2 53397  53.2161 352.0722 0001197  71.7178 288.3945 15.08827362 33464,6917.919,95.438,540.612,538.956,0.0
53397.0,STARLINK-4515,PAYLOAD,2023-03-13 04:48:13,15.08871292,0.0001178,53.2153,348.504,58.0528,302.0578,0.0012216,0.00019224,0.0,0 STARLINK-4515,1 53397U 22097K   23072.20016029  .00019224  00000-0  12216-2 0  9993,2 53397  53.2153 348.5040 0001178  58.0528 302.0578 15.08871292 33090,6917.785,95.436,540.465,538.835,0.0
53397.0,STARLINK-4515,PAYLOAD,2023-03-13 22:17:29,15.08829835,8.96e-05,53.215,345.2346,49.0237,311.0833,2.5992e-05,1.26e-06,0.0,0 STARLINK-4515,1 53397U 22097K   23072.92881299  .00000126  00000-0  25992-4 0  9999,2 53397  53.2150 345.2346 0000896  49.0237 311.0833 15.08829835 33699,6917.911,95.438,540.396,539.157,0.0
53397.0,STARLINK-4515,PAYLOAD,2023-03-14 04:39:02,15.08832426,7.96e-05,53.2149,344.0424,92.4039,267.7045,0.0004658,7.132e-05,0.0,0 STARLINK-4515,1 53397U 22097K   23073.19377539  .00007132  00000-0  46580-3 0  9995,2 53397  53.2149 344.0424 0000796  92.4039 267.7045 15.08832426 33245,6917.904,95.438,540.319,539.218,0.0
53397.0,STARLINK-4515,PAYLOAD,2023-03-14 11:00:34,15.08850917,9.82e-05,53.2152,342.8541,84.2809,275.8295,0.0016074,0.00025394,0.0,0 STARLINK-4515,1 53397U 22097K   23073.45873592  .00025394  00000-0  16074-2 0  9998,2 53397  53.2152 342.8541 0000982  84.2809 275.8295 15.08850917 33776,6917.847,95.437,540.391,539.033,0.0
53397.0,STARLINK-4515,PAYLOAD,2023-03-15 04:29:47,15.08934712,9.19e-05,53.2147,339.5824,88.3818,271.7279,0.0033616,0.0005376,0.0,0 STARLINK-4515,1 53397U 22097K   23074.18734957  .00053760  00000-0  33616-2 0  9999,2 53397  53.2147 339.5824 0000919  88.3818 271.7279 15.08934712 33393,6917.591,95.432,540.092,538.82,0.0
53397.0,STARLINK-4515,PAYLOAD,2023-03-15 21:59:02,15.08861399,0.0001297,53.215,336.3115,59.8728,300.2393,0.0022384,0.00035537,0.0,0 STARLINK-4515,1 53397U 22097K   23074.91599914  .00035537  00000-0  22384-2 0  9994,2 53397  53.2150 336.3115 0001297  59.8728 300.2393 15.08861399 33999,6917.815,95.436,540.577,538.783,0.0
53397.0,STARLINK-4515,PAYLOAD,2023-03-16 04:20:34,15.08865771,0.0001671,53.2144,335.1225,76.1164,284.0014,0.0024114,0.00038326,0.0,0 STARLINK-4515,1 53397U 22097K   23075.18095775  .00038326  00000-0  24114-2 0  9992,2 53397  53.2144 335.1225 0001671  76.1164 284.0014 15.08865771 33541,6917.802,95.436,540.823,538.511,0.0
53397.0,STARLINK-4515,PAYLOAD,2023-03-16 05:55:57,15.08873297,0.0001687,53.2145,334.8242,79.8601,280.2581,0.0027958,0.00044529,0.0,0 STARLINK-4515,1 53397U 22097K   23075.24719606  .00044529  00000-0  27958-2 0  9996,2 53397  53.2145 334.8242 0001687  79.8601 280.2581 15.08873297 34045,6917.779,95.435,540.811,538.477,0.0
53397.0,STARLINK-4515,PAYLOAD,2023-03-16 23:25:14,15.08782604,0.000153,53.2149,331.5524,117.4412,242.6736,0.00042572,6.483e-05,0.0,0 STARLINK-4515,1 53397U 22097K   23075.97586725  .00006483  00000-0  42572-3 0  9997,2 53397  53.2149 331.5524 0001530 117.4412 242.6736 15.08782604 33664,6918.056,95.441,540.979,538.862,0.0
53397.0,STARLINK-4515,PAYLOAD,2023-03-17 13:43:44,15.0881237,0.0001492,53.2149,328.8772,112.3162,247.7988,0.0012741,0.00020032,0.0,0 STARLINK-4515,1 53397U 22097K   23076.57204047  .00020032  00000-0  12741-2 0  9998,2 53397  53.2149 328.8772 0001492 112.3162 247.7988 15.08812370 33750,6917.965,95.439,540.862,538.798,0.0
53397.0,STARLINK-4515,PAYLOAD,2023-03-18 02:26:48,15.08891246,0.0001254,53.2149,326.4998,102.945,257.1682,0.0026521,0.00042233,0.0,0 STARLINK-4515,1 53397U 22097K   23077.10194783  .00042233  00000-0  26521-2 0  9991,2 53397  53.2149 326.4998 0001254 102.9450 257.1682 15.08891246 33839,6917.724,95.434,540.456,538.721,0.0
53397.0,STARLINK-4515,PAYLOAD,2023-03-18 21:31:25,15.0887046,0.0001411,53.2157,322.9296,115.5404,244.5735,0.0011897,0.00018713,0.0,0 STARLINK-4515,1 53397U 22097K   23077.89681948  .00018713  00000-0  11897-2 0  9997,2 53397  53.2157 322.9296 0001411 115.5404 244.5735 15.08870460 33951,6917.787,95.436,540.628,538.676,0.0
53397.0,STARLINK-4515,PAYLOAD,2023-03-19 08:39:07,15.0885263,0.0003167,53.2148,320.8483,75.4267,284.7076,0.0022854,0.00036286,0.0,0 STARLINK-4515,1 53397U 22097K   23078.36050511  .00036286  00000-0  22854-2 0  9996,2 53397  53.2148 320.8483 0003167  75.4267 284.7076 15.08852630 34029,6917.842,95.437,541.898,537.516,0.0
53397.0,STARLINK-4515,PAYLOAD,2023-03-19 19:46:49,15.08840967,0.0001715,53.2165,318.769,104.2207,255.8976,0.00053012,8.159e-05,0.0,0 STARLINK-4515,1 53397U 22097K   23078.82417872  .00008159  00000-0  53012-3 0  9993,2 53397  53.2165 318.7690 0001715 104.2207 255.8976 15.08840967 34091,6917.877,95.437,540.929,538.556,0.0
53397.0,STARLINK-4515,PAYLOAD,2023-03-19 21:22:12,15.08843892,0.000143,53.2157,318.469,96.6188,263.4966,0.00043028,6.567e-05,0.0,0 STARLINK-4515,1 53397U 22097K   23078.89041813  .00006567  00000-0  43028-3 0  9995,2 53397  53.2157 318.4690 0001430  96.6188 263.4966 15.08843892 34594,6917.868,95.437,540.723,538.744,0.0
53397.0,STARLINK-4515,PAYLOAD,2023-03-20 08:29:54,15.0884408,0.0001403,53.2151,316.3896,87.7826,272.3327,0.00038307,5.815e-05,0.0,0 STARLINK-4515,1 53397U 22097K   23079.35409842  .00005815  00000-0  38307-3 0  9996,2 53397  53.2151 316.3896 0001403  87.7826 272.3327 15.08844080 34661,6917.868,95.437,540.703,538.762,0.0
53397.0,STARLINK-4515,PAYLOAD,2023-03-20 22:48:22,15.08847369,0.0001456,53.216,313.715,94.9164,265.1995,0.00037364,5.665e-05,0.0,0 STARLINK-4515,1 53397U 22097K   23079.95025783  .00005665  00000-0  37364-3 0  9995,2 53397  53.2160 313.7150 0001456  94.9164 265.1995 15.08847369 34268,6917.858,95.437,540.73,538.716,0.0
53397.0,STARLINK-4515,PAYLOAD,2023-03-21 01:59:08,15.08849697,0.0001369,53.2148,313.1165,81.5302,278.5845,0.00044583,6.816e-05,0.0,0 STARLINK-4515,1 53397U 22097K   23080.08273635  .00006816  00000-0  44583-3 0  9992,2 53397  53.2148 313.1165 0001369  81.5302 278.5845 15.08849697 34777,6917.851,95.437,540.663,538.769,0.0
53397.0,STARLINK-4515,PAYLOAD,2023-03-21 19:28:22,15.08842394,0.0001276,53.2134,309.8447,69.4069,290.706,9.8268e-05,1.276e-05,0.0,0 STARLINK-4515,1 53397U 22097K   23080.81137618  .00001276  00000-0  98268-4 0  9998,2 53397  53.2134 309.8447 0001276  69.4069 290.7060 15.08842394 34399,6917.873,95.437,540.621,538.855,0.0
53397.0,STARLINK-4515,PAYLOAD,2023-03-22 20:54:32,15.08842599,0.0001056,53.2138,305.086,94.158,265.9533,8.2621e-05,1.027e-05,0.0,0 STARLINK-4515,1 53397U 22097K   23081.87121374  .00001027  00000-0  82621-4 0  9997,2 53397  53.2138 305.0860 0001056  94.1580 265.9533 15.08842599 34553,6917.872,95.437,540.468,539.007,0.0
53397.0,STARLINK-4515,PAYLOAD,2023-03-22 22:29:55,15.0884737,0.0001208,53.2137,304.789,87.5318,272.5812,9.9769e-05,1.301e-05,0.0,0 STARLINK-4515,1 53397U 22097K   23081.93745168  .00001301  00000-0  99769-4 0  9993,2 53397  53.2137 304.7890 0001208  87.5318 272.5812 15.08847370 35057,6917.858,95.437,540.559,538.887,0.0
53397.0,STARLINK-4515,PAYLOAD,2023-03-23 20:45:20,15.08838937,0.0001225,53.2137,300.6247,90.0333,270.0799,7.424e-05,8.94e-06,0.0,0 STARLINK-4515,1 53397U 22097K   23082.86481894  .00000894  00000-0  74240-4 0  9992,2 53397  53.2137 300.6247 0001225  90.0333 270.0799 15.08838937 34700,6917.884,95.438,540.596,538.901,0.0
53397.0,STARLINK-4515,PAYLOAD,2023-03-23 23:56:06,15.08849782,0.000115,53.2136,300.0309,76.5517,283.5603,0.00034279,5.173e-05,0.0,0 STARLINK-4515,1 53397U 22097K   23082.99729728  .00005173  00000-0  34279-3 0  9999,2 53397  53.2136 300.0309 0001150  76.5517 283.5603 15.08849782 34727,6917.85,95.437,540.511,538.92,0.0
53397.0,STARLINK-4515,PAYLOAD,2023-03-24 20:36:06,15.08877037,0.0001219,53.2118,296.1654,77.238,282.8749,0.00092206,0.00014432,0.0,0 STARLINK-4515,1 53397U 22097K   23083.85840479  .00014432  00000-0  92206-3 0  9994,2 53397  53.2118 296.1654 0001219  77.2380 282.8749 15.08877037 34858,6917.767,95.435,540.475,538.789,0.0
53397.0,STARLINK-4515,PAYLOAD,2023-03-25 10:54:34,15.08832299,0.0001378,53.2127,293.4875,98.5822,261.5326,-0.00077656,-0.00012623,0.0,0 STARLINK-4515,1 53397U 22097K   23084.45456854 -.00012623  00000-0 -77656-3 0  9995,2 53397  53.2127 293.4875 0001378  98.5822 261.5326 15.08832299 34942,6917.904,95.438,540.722,538.816,0.0
53397.0,STARLINK-4515,PAYLOAD,2023-03-25 20:26:54,15.08802592,0.0001298,53.2136,291.7027,104.7699,255.3437,-0.00072163,-0.00011742,0.0,0 STARLINK-4515,1 53397U 22097K   23084.85202219 -.00011742  00000-0 -72163-3 0  9992,2 53397  53.2136 291.7027 0001298 104.7699 255.3437 15.08802592 35000,6917.995,95.44,540.758,538.962,0.0
